CCSDS_OMM_VERS = 2.0
CREATION_DATE  = 
ORIGINATOR     = 

OBJECT_NAME    = UNKNOWN
OBJECT_ID      = 
CENTER_NAME    = EARTH
REF_FRAME      = TEME
TIME_SYSTEM    = UTC
MEAN_ELEMENT_THEORY = SGP/SGP4

EPOCH          = 2025-12-16T02:05:16.024992
MEAN_MOTION    = 13.88028478
ECCENTRICITY   = .0061264
INCLINATION    = 82.8057
RA_OF_ASC_NODE = 26.1028
ARG_OF_PERICENTER = 356.2846
MEAN_ANOMALY   = 35.3105

EPHEMERIS_TYPE = 0
CLASSIFICATION_TYPE = U
NORAD_CAT_ID   = 81865
ELEMENT_SET_NO = 999
REV_AT_EPOCH   = 60901
BSTAR          = .11095E-2
MEAN_MOTION_DOT = .1356E-4
MEAN_MOTION_DDOT = 0

CCSDS_OMM_VERS = 2.0
CREATION_DATE  = 
ORIGINATOR     = 

OBJECT_NAME    = UNKNOWN
OBJECT_ID      = 
CENTER_NAME    = EARTH
REF_FRAME      = TEME
TIME_SYSTEM    = UTC
MEAN_ELEMENT_THEORY = SGP/SGP4

EPOCH          = 2025-12-14T04:11:13.197984
MEAN_MOTION    = 13.76696546
ECCENTRICITY   = .0020302
INCLINATION    = 100.0479
RA_OF_ASC_NODE = 331.5612
ARG_OF_PERICENTER = 266.0534
MEAN_ANOMALY   = 93.8293

EPHEMERIS_TYPE = 0
CLASSIFICATION_TYPE = U
NORAD_CAT_ID   = 81893
ELEMENT_SET_NO = 999
REV_AT_EPOCH   = 60427
BSTAR          = .15241E-2
MEAN_MOTION_DOT = .145E-4
MEAN_MOTION_DDOT = 0

CCSDS_OMM_VERS = 2.0
CREATION_DATE  = 
ORIGINATOR     = 

OBJECT_NAME    = UNKNOWN
OBJECT_ID      = 
CENTER_NAME    = EARTH
REF_FRAME      = TEME
TIME_SYSTEM    = UTC
MEAN_ELEMENT_THEORY = SGP/SGP4

EPOCH          = 2025-12-15T18:06:46.586304
MEAN_MOTION    = 13.20202606
ECCENTRICITY   = .0184021
INCLINATION    = 102.4169
RA_OF_ASC_NODE = 92.1037
ARG_OF_PERICENTER = 207.5259
MEAN_ANOMALY   = 151.6008

EPHEMERIS_TYPE = 0
CLASSIFICATION_TYPE = U
NORAD_CAT_ID   = 81899
ELEMENT_SET_NO = 999
REV_AT_EPOCH   = 57938
BSTAR          = .30663E-2
MEAN_MOTION_DOT = .1293E-4
MEAN_MOTION_DDOT = 0

CCSDS_OMM_VERS = 2.0
CREATION_DATE  = 
ORIGINATOR     = 

OBJECT_NAME    = UNKNOWN
OBJECT_ID      = 
CENTER_NAME    = EARTH
REF_FRAME      = TEME
TIME_SYSTEM    = UTC
MEAN_ELEMENT_THEORY = SGP/SGP4

EPOCH          = 2025-12-11T13:49:15.347712
MEAN_MOTION    = 13.15182287
ECCENTRICITY   = .0845027
INCLINATION    = 65.7104
RA_OF_ASC_NODE = 55.7774
ARG_OF_PERICENTER = 115.0576
MEAN_ANOMALY   = 254.0563

EPHEMERIS_TYPE = 0
CLASSIFICATION_TYPE = U
NORAD_CAT_ID   = 81921
ELEMENT_SET_NO = 999
REV_AT_EPOCH   = 2563
BSTAR          = .92469E-3
MEAN_MOTION_DOT = .2225E-4
MEAN_MOTION_DDOT = 0

CCSDS_OMM_VERS = 2.0
CREATION_DATE  = 
ORIGINATOR     = 

OBJECT_NAME    = UNKNOWN
OBJECT_ID      = 
CENTER_NAME    = EARTH
REF_FRAME      = TEME
TIME_SYSTEM    = UTC
MEAN_ELEMENT_THEORY = SGP/SGP4

EPOCH          = 2025-12-08T19:10:03.254592
MEAN_MOTION    = 12.42574196
ECCENTRICITY   = .0672157
INCLINATION    = 66.4150
RA_OF_ASC_NODE = 160.2310
ARG_OF_PERICENTER = 353.2715
MEAN_ANOMALY   = 27.8585

EPHEMERIS_TYPE = 0
CLASSIFICATION_TYPE = U
NORAD_CAT_ID   = 81946
ELEMENT_SET_NO = 999
REV_AT_EPOCH   = 54739
BSTAR          = .49968E-3
MEAN_MOTION_DOT = .99E-6
MEAN_MOTION_DDOT = 0

CCSDS_OMM_VERS = 2.0
CREATION_DATE  = 
ORIGINATOR     = 

OBJECT_NAME    = UNKNOWN
OBJECT_ID      = 
CENTER_NAME    = EARTH
REF_FRAME      = TEME
TIME_SYSTEM    = UTC
MEAN_ELEMENT_THEORY = SGP/SGP4

EPOCH          = 2025-12-14T18:37:10.048800
MEAN_MOTION    = 14.52683046
ECCENTRICITY   = .0376031
INCLINATION    = 66.0730
RA_OF_ASC_NODE = 162.5046
ARG_OF_PERICENTER = 141.5331
MEAN_ANOMALY   = 221.3235

EPHEMERIS_TYPE = 0
CLASSIFICATION_TYPE = U
NORAD_CAT_ID   = 81947
ELEMENT_SET_NO = 999
REV_AT_EPOCH   = 63131
BSTAR          = .67798E-3
MEAN_MOTION_DOT = .7048E-4
MEAN_MOTION_DDOT = 0

CCSDS_OMM_VERS = 2.0
CREATION_DATE  = 
ORIGINATOR     = 

OBJECT_NAME    = UNKNOWN
OBJECT_ID      = 
CENTER_NAME    = EARTH
REF_FRAME      = TEME
TIME_SYSTEM    = UTC
MEAN_ELEMENT_THEORY = SGP/SGP4

EPOCH          = 2025-12-13T17:57:52.949664
MEAN_MOTION    = 13.95796394
ECCENTRICITY   = .0029047
INCLINATION    = 66.5847
RA_OF_ASC_NODE = 256.2769
ARG_OF_PERICENTER = 85.5245
MEAN_ANOMALY   = 274.9152

EPHEMERIS_TYPE = 0
CLASSIFICATION_TYPE = U
NORAD_CAT_ID   = 81964
ELEMENT_SET_NO = 999
REV_AT_EPOCH   = 61418
BSTAR          = .308E-3
MEAN_MOTION_DOT = .343E-5
MEAN_MOTION_DDOT = 0

CCSDS_OMM_VERS = 2.0
CREATION_DATE  = 
ORIGINATOR     = 

OBJECT_NAME    = UNKNOWN
OBJECT_ID      = 
CENTER_NAME    = EARTH
REF_FRAME      = TEME
TIME_SYSTEM    = UTC
MEAN_ELEMENT_THEORY = SGP/SGP4

EPOCH          = 2025-12-15T04:47:39.718464
MEAN_MOTION    = 15.11047107
ECCENTRICITY   = .0004893
INCLINATION    = 86.6895
RA_OF_ASC_NODE = 152.3711
ARG_OF_PERICENTER = 149.9199
MEAN_ANOMALY   = 210.2321

EPHEMERIS_TYPE = 0
CLASSIFICATION_TYPE = U
NORAD_CAT_ID   = 81969
ELEMENT_SET_NO = 999
REV_AT_EPOCH   = 44054
BSTAR          = .53569E-3
MEAN_MOTION_DOT = .8989E-4
MEAN_MOTION_DDOT = 0

CCSDS_OMM_VERS = 2.0
CREATION_DATE  = 
ORIGINATOR     = 

OBJECT_NAME    = UNKNOWN
OBJECT_ID      = 
CENTER_NAME    = EARTH
REF_FRAME      = TEME
TIME_SYSTEM    = UTC
MEAN_ELEMENT_THEORY = SGP/SGP4

EPOCH          = 2025-12-15T15:14:50.517024
MEAN_MOTION    = 14.03799769
ECCENTRICITY   = .052047
INCLINATION    = 65.7462
RA_OF_ASC_NODE = 116.4426
ARG_OF_PERICENTER = 295.5950
MEAN_ANOMALY   = 59.2213

EPHEMERIS_TYPE = 0
CLASSIFICATION_TYPE = U
NORAD_CAT_ID   = 81995
ELEMENT_SET_NO = 999
REV_AT_EPOCH   = 60463
BSTAR          = .63995E-3
MEAN_MOTION_DOT = .3342E-4
MEAN_MOTION_DDOT = 0

CCSDS_OMM_VERS = 2.0
CREATION_DATE  = 
ORIGINATOR     = 

OBJECT_NAME    = UNKNOWN
OBJECT_ID      = 
CENTER_NAME    = EARTH
REF_FRAME      = TEME
TIME_SYSTEM    = UTC
MEAN_ELEMENT_THEORY = SGP/SGP4

EPOCH          = 2025-12-15T20:42:26.848800
MEAN_MOTION    = 14.32573321
ECCENTRICITY   = .0232379
INCLINATION    = 97.9278
RA_OF_ASC_NODE = 138.2964
ARG_OF_PERICENTER = 74.2357
MEAN_ANOMALY   = 288.4322

EPHEMERIS_TYPE = 0
CLASSIFICATION_TYPE = U
NORAD_CAT_ID   = 82043
ELEMENT_SET_NO = 999
REV_AT_EPOCH   = 57429
BSTAR          = .37261E-3
MEAN_MOTION_DOT = .1322E-4
MEAN_MOTION_DDOT = 0

CCSDS_OMM_VERS = 2.0
CREATION_DATE  = 
ORIGINATOR     = 

OBJECT_NAME    = UNKNOWN
OBJECT_ID      = 
CENTER_NAME    = EARTH
REF_FRAME      = TEME
TIME_SYSTEM    = UTC
MEAN_ELEMENT_THEORY = SGP/SGP4

EPOCH          = 2025-12-15T23:16:03.642240
MEAN_MOTION    = 14.35938325
ECCENTRICITY   = .0092878
INCLINATION    = 98.7479
RA_OF_ASC_NODE = 75.5102
ARG_OF_PERICENTER = 249.5736
MEAN_ANOMALY   = 109.5456

EPHEMERIS_TYPE = 0
CLASSIFICATION_TYPE = U
NORAD_CAT_ID   = 82051
ELEMENT_SET_NO = 999
REV_AT_EPOCH   = 57287
BSTAR          = .15323E-2
MEAN_MOTION_DOT = .4625E-4
MEAN_MOTION_DDOT = 0

CCSDS_OMM_VERS = 2.0
CREATION_DATE  = 
ORIGINATOR     = 

OBJECT_NAME    = UNKNOWN
OBJECT_ID      = 
CENTER_NAME    = EARTH
REF_FRAME      = TEME
TIME_SYSTEM    = UTC
MEAN_ELEMENT_THEORY = SGP/SGP4

EPOCH          = 2025-12-16T03:49:21.855936
MEAN_MOTION    = 14.38853324
ECCENTRICITY   = .0206313
INCLINATION    = 97.7533
RA_OF_ASC_NODE = 65.9522
ARG_OF_PERICENTER = 277.2288
MEAN_ANOMALY   = 80.5491

EPHEMERIS_TYPE = 0
CLASSIFICATION_TYPE = U
NORAD_CAT_ID   = 82073
ELEMENT_SET_NO = 999
REV_AT_EPOCH   = 57561
BSTAR          = .54112E-3
MEAN_MOTION_DOT = .2088E-4
MEAN_MOTION_DDOT = 0

