UNKNOWN                 
1 81865U          25350.08699103  .00001356  00000+0  11095-2 0  9991
2 81865  82.8057  26.1028 0061264 356.2846  35.3105 13.88028478609014
UNKNOWN                 
1 81893U          25348.17445831  .00001450  00000+0  15241-2 0  9998
2 81893 100.0479 331.5612 0020302 266.0534  93.8293 13.76696546604272
UNKNOWN                 
1 81899U          25349.75470586  .00001293  00000+0  30663-2 0  9994
2 81899 102.4169  92.1037 0184021 207.5259 151.6008 13.20202606579383
UNKNOWN                 
1 81921U          25345.57587208  .00002225  00000+0  92469-3 0  9995
2 81921  65.7104  55.7774 0845027 115.0576 254.0563 13.15182287 25631
UNKNOWN                 
1 81946U          25342.79864878  .00000099  00000+0  49968-3 0  9997
2 81946  66.4150 160.2310 0672157 353.2715  27.8585 12.42574196547393
UNKNOWN                 
1 81947U          25348.77581075  .00007048  00000+0  67798-3 0  9999
2 81947  66.0730 162.5046 0376031 141.5331 221.3235 14.52683046631316
UNKNOWN                 
1 81964U          25347.74852951  .00000343  00000+0  30800-3 0  9993
2 81964  66.5847 256.2769 0029047  85.5245 274.9152 13.95796394614180
UNKNOWN                 
1 81969U          25349.19976526  .00008989  00000+0  53569-3 0  9995
2 81969  86.6895 152.3711 0004893 149.9199 210.2321 15.11047107440548
UNKNOWN                 
1 81995U          25349.63530691  .00003342  00000+0  63995-3 0  9994
2 81995  65.7462 116.4426 0520470 295.5950  59.2213 14.03799769604637
UNKNOWN                 
1 82043U          25349.86281075  .00001322  00000+0  37261-3 0  9996
2 82043  97.9278 138.2964 0232379  74.2357 288.4322 14.32573321574295
UNKNOWN                 
1 82051U          25349.96948660  .00004625  00000+0  15323-2 0  9999
2 82051  98.7479  75.5102 0092878 249.5736 109.5456 14.35938325572874
UNKNOWN                 
1 82073U          25350.15928074  .00002088  00000+0  54112-3 0  9994
2 82073  97.7533  65.9522 0206313 277.2288  80.5491 14.38853324575618
